CTC1_L_00325001-01
1 10000U 25968FQ  26075.70033565  .00000000  00000+0  00000-0 0  9999
2 10000  55.0000   0.0000 0000000   0.0000   0.0000 14.51731151    13
CTC1_L_00325001-02
1 10001U 24024ZB  26075.70033565  .00000000  00000+0  00000-0 0  9992
2 10001  55.0000   0.0000 0000000   0.0000  90.0000 14.51731151    13
CTC1_L_00325001-03
1 10002U 26521DP  26075.70033565  .00000000  00000+0  00000-0 0  9997
2 10002  55.0000   0.0000 0000000   0.0000 180.0000 14.51731151    14
CTC1_L_00325001-04
1 10003U 22022KL  26075.70033565  .00000000  00000+0  00000-0 0  9990
2 10003  55.0000   0.0000 0000000   0.0000 270.0000 14.51731151    15
CTC1_L_00325002-01
1 10004U 23180IL  26075.70033565  .00000000  00000+0  00000-0 0  9997
2 10004  55.0000  12.0000 0000000   0.0000  12.0000 14.51731151    13
CTC1_L_00325002-02
1 10005U 25284RV  26075.70033565  .00000000  00000+0  00000-0 0  9995
2 10005  55.0000  12.0000 0000000   0.0000 102.0000 14.51731151    14
CTC1_L_00325002-03
1 10006U 25042NK  26075.70033565  .00000000  00000+0  00000-0 0  9998
2 10006  55.0000  12.0000 0000000   0.0000 192.0000 14.51731151    14
CTC1_L_00325002-04
1 10007U 22627WF  26075.70033565  .00000000  00000+0  00000-0 0  9995
2 10007  55.0000  12.0000 0000000   0.0000 282.0000 14.51731151    15
CTC1_L_00325003-01
1 10008U 26384WP  26075.70033565  .00000000  00000+0  00000-0 0  9990
2 10008  55.0000  24.0000 0000000   0.0000  24.0000 14.51731151    13
CTC1_L_00325003-02
1 10009U 26862W   26075.70033565  .00000000  00000+0  00000-0 0  9992
2 10009  55.0000  24.0000 0000000   0.0000 114.0000 14.51731151    14
CTC1_L_00325003-03
1 10010U 22286IH  26075.70033565  .00000000  00000+0  00000-0 0  9990
2 10010  55.0000  24.0000 0000000   0.0000 204.0000 14.51731151    16
CTC1_L_00325003-04
1 10011U 22268TH  26075.70033565  .00000000  00000+0  00000-0 0  9991
2 10011  55.0000  24.0000 0000000   0.0000 294.0000 14.51731151    16
CTC1_L_00325004-01
1 10012U 25700IY  26075.70033565  .00000000  00000+0  00000-0 0  9996
2 10012  55.0000  36.0000 0000000   0.0000  36.0000 14.51731151    14
CTC1_L_00325004-02
1 10013U 23267KF  26075.70033565  .00000000  00000+0  00000-0 0  9993
2 10013  55.0000  36.0000 0000000   0.0000 126.0000 14.51731151    15
CTC1_L_00325004-03
1 10014U 24350XL  26075.70033565  .00000000  00000+0  00000-0 0  9998
2 10014  55.0000  36.0000 0000000   0.0000 216.0000 14.51731151    16
CTC1_L_00325004-04
1 10015U 26029XK  26075.70033565  .00000000  00000+0  00000-0 0  9994
2 10015  55.0000  36.0000 0000000   0.0000 306.0000 14.51731151    17
CTC1_L_00325005-01
1 10016U 25334ZB  26075.70033565  .00000000  00000+0  00000-0 0  9993
2 10016  55.0000  48.0000 0000000   0.0000  48.0000 14.51731151    14
CTC1_L_00325005-02
1 10017U 26175FK  26075.70033565  .00000000  00000+0  00000-0 0  9998
2 10017  55.0000  48.0000 0000000   0.0000 138.0000 14.51731151    15
CTC1_L_00325005-03
1 10018U 25968YV  26075.70033565  .00000000  00000+0  00000-0 0  9998
2 10018  55.0000  48.0000 0000000   0.0000 228.0000 14.51731151    16
CTC1_L_00325005-04
1 10019U 24728ZE  26075.70033565  .00000000  00000+0  00000-0 0  9992
2 10019  55.0000  48.0000 0000000   0.0000 318.0000 14.51731151    17
CTC1_L_00325006-01
1 10020U 22453DC  26075.70033565  .00000000  00000+0  00000-0 0  9997
2 10020  55.0000  60.0000 0000000   0.0000  60.0000 14.51731151    17
CTC1_L_00325006-02
1 10021U 23500XA  26075.70033565  .00000000  00000+0  00000-0 0  9992
2 10021  55.0000  60.0000 0000000   0.0000 150.0000 14.51731151    18
CTC1_L_00325006-03
1 10022U 22735IE  26075.70033565  .00000000  00000+0  00000-0 0  9992
2 10022  55.0000  60.0000 0000000   0.0000 240.0000 14.51731151    19
CTC1_L_00325006-04
1 10023U 23451QH  26075.70033565  .00000000  00000+0  00000-0 0  9999
2 10023  55.0000  60.0000 0000000   0.0000 330.0000 14.51731151    10
CTC1_L_00325007-01
1 10024U 25238WY  26075.70033565  .00000000  00000+0  00000-0 0  9995
2 10024  55.0000  72.0000 0000000   0.0000  72.0000 14.51731151    17
CTC1_L_00325007-02
1 10025U 22298OC  26075.70033565  .00000000  00000+0  00000-0 0  9999
2 10025  55.0000  72.0000 0000000   0.0000 162.0000 14.51731151    18
CTC1_L_00325007-03
1 10026U 22236MH  26075.70033565  .00000000  00000+0  00000-0 0  9992
2 10026  55.0000  72.0000 0000000   0.0000 252.0000 14.51731151    19
CTC1_L_00325007-04
1 10027U 23584TJ  26075.70033565  .00000000  00000+0  00000-0 0  9990
2 10027  55.0000  72.0000 0000000   0.0000 342.0000 14.51731151    10
CTC1_L_00325008-01
1 10028U 26005MP  26075.70033565  .00000000  00000+0  00000-0 0  9992
2 10028  55.0000  84.0000 0000000   0.0000  84.0000 14.51731151    17
CTC1_L_00325008-02
1 10029U 26126UU  26075.70033565  .00000000  00000+0  00000-0 0  9997
2 10029  55.0000  84.0000 0000000   0.0000 174.0000 14.51731151    18
CTC1_L_00325008-03
1 10030U 25607DP  26075.70033565  .00000000  00000+0  00000-0 0  9992
2 10030  55.0000  84.0000 0000000   0.0000 264.0000 14.51731151    10
CTC1_L_00325008-04
1 10031U 26381BK  26075.70033565  .00000000  00000+0  00000-0 0  9993
2 10031  55.0000  84.0000 0000000   0.0000 354.0000 14.51731151    11
CTC1_L_00325009-01
1 10032U 26529UJ  26075.70033565  .00000000  00000+0  00000-0 0  9998
2 10032  55.0000  96.0000 0000000   0.0000  96.0000 14.51731151    18
CTC1_L_00325009-02
1 10033U 24619IN  26075.70033565  .00000000  00000+0  00000-0 0  9997
2 10033  55.0000  96.0000 0000000   0.0000 186.0000 14.51731151    19
CTC1_L_00325009-03
1 10034U 23166MV  26075.70033565  .00000000  00000+0  00000-0 0  9994
2 10034  55.0000  96.0000 0000000   0.0000 276.0000 14.51731151    10
CTC1_L_00325009-04
1 10035U 26701FS  26075.70033565  .00000000  00000+0  00000-0 0  9993
2 10035  55.0000  96.0000 0000000   0.0000   6.0000 14.51731151    12
CTC1_L_00325010-01
1 10036U 23790JA  26075.70033565  .00000000  00000+0  00000-0 0  9999
2 10036  55.0000 108.0000 0000000   0.0000 108.0000 14.51731151    10
CTC1_L_00325010-02
1 10037U 22123IP  26075.70033565  .00000000  00000+0  00000-0 0  9999
2 10037  55.0000 108.0000 0000000   0.0000 198.0000 14.51731151    10
CTC1_L_00325010-03
1 10038U 23551KW  26075.70033565  .00000000  00000+0  00000-0 0  9996
2 10038  55.0000 108.0000 0000000   0.0000 288.0000 14.51731151    11
CTC1_L_00325010-04
1 10039U 23391LC  26075.70033565  .00000000  00000+0  00000-0 0  9999
2 10039  55.0000 108.0000 0000000   0.0000  18.0000 14.51731151    13
CTC1_L_00325011-01
1 10040U 23562KW  26075.70033565  .00000000  00000+0  00000-0 0  9991
2 10040  55.0000 120.0000 0000000   0.0000 120.0000 14.51731151    13
CTC1_L_00325011-02
1 10041U 24275ST  26075.70033565  .00000000  00000+0  00000-0 0  9994
2 10041  55.0000 120.0000 0000000   0.0000 210.0000 14.51731151    14
CTC1_L_00325011-03
1 10042U 24760PA  26075.70033565  .00000000  00000+0  00000-0 0  9994
2 10042  55.0000 120.0000 0000000   0.0000 300.0000 14.51731151    15
CTC1_L_00325011-04
1 10043U 22158UV  26075.70033565  .00000000  00000+0  00000-0 0  9994
2 10043  55.0000 120.0000 0000000   0.0000  30.0000 14.51731151    16
CTC1_L_00325012-01
1 10044U 23782IV  26075.70033565  .00000000  00000+0  00000-0 0  9999
2 10044  55.0000 132.0000 0000000   0.0000 132.0000 14.51731151    13
CTC1_L_00325012-02
1 10045U 22448XK  26075.70033565  .00000000  00000+0  00000-0 0  9998
2 10045  55.0000 132.0000 0000000   0.0000 222.0000 14.51731151    14
CTC1_L_00325012-03
1 10046U 24332FD  26075.70033565  .00000000  00000+0  00000-0 0  9993
2 10046  55.0000 132.0000 0000000   0.0000 312.0000 14.51731151    15
CTC1_L_00325012-04
1 10047U 25006UH  26075.70033565  .00000000  00000+0  00000-0 0  9993
2 10047  55.0000 132.0000 0000000   0.0000  42.0000 14.51731151    16
CTC1_L_00325013-01
1 10048U 24071QL  26075.70033565  .00000000  00000+0  00000-0 0  9995
2 10048  55.0000 144.0000 0000000   0.0000 144.0000 14.51731151    13
CTC1_L_00325013-02
1 10049U 24763BB  26075.70033565  .00000000  00000+0  00000-0 0  9994
2 10049  55.0000 144.0000 0000000   0.0000 234.0000 14.51731151    14
CTC1_L_00325013-03
1 10050U 23696BG  26075.70033565  .00000000  00000+0  00000-0 0  9990
2 10050  55.0000 144.0000 0000000   0.0000 324.0000 14.51731151    16
CTC1_L_00325013-04
1 10051U 23296UM  26075.70033565  .00000000  00000+0  00000-0 0  9997
2 10051  55.0000 144.0000 0000000   0.0000  54.0000 14.51731151    17
CTC1_L_00325014-01
1 10052U 23927CI  26075.70033565  .00000000  00000+0  00000-0 0  9999
2 10052  55.0000 156.0000 0000000   0.0000 156.0000 14.51731151    14
CTC1_L_00325014-02
1 10053U 22466LH  26075.70033565  .00000000  00000+0  00000-0 0  9997
2 10053  55.0000 156.0000 0000000   0.0000 246.0000 14.51731151    15
CTC1_L_00325014-03
1 10054U 23146NQ  26075.70033565  .00000000  00000+0  00000-0 0  9994
2 10054  55.0000 156.0000 0000000   0.0000 336.0000 14.51731151    16
CTC1_L_00325014-04
1 10055U 25600KC  26075.70033565  .00000000  00000+0  00000-0 0  9992
2 10055  55.0000 156.0000 0000000   0.0000  66.0000 14.51731151    17
CTC1_L_00325015-01
1 10056U 26277AK  26075.70033565  .00000000  00000+0  00000-0 0  9994
2 10056  55.0000 168.0000 0000000   0.0000 168.0000 14.51731151    14
CTC1_L_00325015-02
1 10057U 22308LZ  26075.70033565  .00000000  00000+0  00000-0 0  9996
2 10057  55.0000 168.0000 0000000   0.0000 258.0000 14.51731151    15
CTC1_L_00325015-03
1 10058U 23958WC  26075.70033565  .00000000  00000+0  00000-0 0  9999
2 10058  55.0000 168.0000 0000000   0.0000 348.0000 14.51731151    16
CTC1_L_00325015-04
1 10059U 24646U   26075.70033565  .00000000  00000+0  00000-0 0  9995
2 10059  55.0000 168.0000 0000000   0.0000  78.0000 14.51731151    17
CTC1_L_00325016-01
1 10060U 22778CZ  26075.70033565  .00000000  00000+0  00000-0 0  9991
2 10060  55.0000 180.0000 0000000   0.0000 180.0000 14.51731151    17
CTC1_L_00325016-02
1 10061U 26092YZ  26075.70033565  .00000000  00000+0  00000-0 0  9995
2 10061  55.0000 180.0000 0000000   0.0000 270.0000 14.51731151    18
